QIANFAN-145             
1 69104U 26108A   26167.10113162  .00000157  00000+0  90050-4 0  9994
2 69104  89.0004  22.3547 0015269 132.9106 227.3359 14.04311130  4183
QIANFAN-146             
1 69105U 26108B   26167.13243367  .00000201  00000+0  97535-4 0  9994
2 69105  89.0113  22.3166 0017011 112.2272 248.0721 14.14384861  4202
QIANFAN-147             
1 69106U 26108C   26167.14970985  .00000069  00000+0  33075-4 0  9990
2 69106  89.0107  22.3357 0015114 106.9558 253.3282 14.06582244  4192
QIANFAN-148             
1 69107U 26108D   26167.14478047  .00000049  00000+0  21281-4 0  9997
2 69107  89.0105  22.3357 0017037 114.1399 246.1566 14.05752907  4190
QIANFAN-149             
1 69108U 26108E   26166.85773189 -.02018072  00000+0 -14159+1 0  9991
2 69108  89.0102  22.3675 0014959 135.1974 225.0417 14.02331937  4153
QIANFAN-150             
1 69109U 26108F   26166.62774412 -.02046775  00000+0 -13739+1 0  9991
2 69109  89.0104  22.3890 0018725 129.5566 230.7274 14.04834327  4128
QIANFAN-151             
1 69110U 26108G   26166.83814608 -.02094554  00000+0 -14222+1 0  9994
2 69110  89.0107  22.3639 0021707 117.0228 243.3172 14.04259816  4159
QIANFAN-152             
1 69111U 26108H   26167.18078786  .00000127  00000+0  67356-4 0  9992
2 69111  89.0111  22.3213 0016061 114.8869 245.3986 14.07377217  4206
QIANFAN-153             
1 69112U 26108J   26166.89286029 -.02082702  00000+0 -14157+1 0  9991
2 69112  89.0099  22.3533 0014285 134.8964 225.3379 14.04240468  4164
QIANFAN-154             
1 69113U 26108K   26166.88377986 -.02043744  00000+0 -13700+1 0  9990
2 69113  89.0109  22.3530 0015940 129.6269 230.6322 14.04928135  4164
QIANFAN-155             
1 69114U 26108L   26167.10392600  .00000157  00000+0  86395-4 0  9998
2 69114  89.0089  22.3318 0016466 117.4326 242.8534 14.06577890  4192
QIANFAN-156             
1 69115U 26108M   26167.15577552  .00000098  00000+0  48303-4 0  9996
2 69115  89.0119  22.3213 0017588 110.2529 250.0547 14.09008918  4203
QIANFAN-157             
1 69116U 26108N   26167.04818591  .00000056  00000+0  22810-4 0  9995
2 69116  89.0075  22.3187 0016397 125.6311 234.6404 14.11788989  4195
QIANFAN-158             
1 69117U 26108P   26167.07215030  .00000042  00000+0  17706-4 0  9991
2 69117  89.0070  22.3420 0016687 116.2178 244.0721 14.04515273  4193
QIANFAN-159             
1 69118U 26108Q   26167.20640183  .00000022  00000+0  41741-5 0  9993
2 69118  89.0103  22.3086 0016626 111.1106 249.1857 14.10468394  4214
QIANFAN-160             
1 69119U 26108R   26167.13318632  .00000007  00000+0 -43319-5 0  9994
2 69119  89.0107  22.3155 0015867 116.0775 244.2045 14.09461303  4203
QIANFAN-161             
1 69120U 26108S   26166.90701338 -.02070156  00000+0 -12711+1 0  9991
2 69120  89.0104  22.3381 0009760 110.7412 249.4819 14.09879851  4170
QIANFAN-162             
1 69121U 26108T   26166.76363243  .00000061  00000+0  25427-4 0  9991
2 69121  89.0110  22.3538 0016411 118.2011 242.0834 14.12684321  4155
SMILE                   
1 69123U 26109A   26144.65318427 -.00001976  00000+0 -42379-3 0  9994
2 69123  70.0007 229.2745 0009123 259.5159 100.4951 14.57062785   802
STARLINK-37726          
1 69124U 26110A   26167.19972341  .00016560  00000+0  30532-3 0  9993
2 69124  97.2836   3.4085 0001575  88.3329 271.8103 15.49206234  5441
STARLINK-37722          
1 69125U 26110B   26166.55038854  .00028583  00000+0  52493-3 0  9993
2 69125  97.2822   2.9146 0001731  97.0248 263.1200 15.49208597  5356
STARLINK-37715          
1 69126U 26110C   26167.16668980 -.00039984  00000+0 -12420-2 0  9995
2 69126  97.2845   3.5428 0001931  95.5924 109.9582 15.33462166  5490
STARLINK-37706          
1 69127U 26110D   26167.16668980 -.00049738  00000+0 -15473-2 0  9995
2 69127  97.2841   3.5486 0001772  94.4938 126.0498 15.33467547  5491
STARLINK-37723          
1 69128U 26110E   26167.16668980 -.00047382  00000+0 -14737-2 0  9991
2 69128  97.2840   3.5550 0001570  91.5386 144.0032 15.33462957  5498
STARLINK-37720          
1 69129U 26110F   26166.99716306  .00040853  00000+0  74833-3 0  9996
2 69129  97.2851   3.2243 0001067  86.8271 273.3103 15.49212190  5414
STARLINK-37533          
1 69130U 26110G   26167.16668980 -.00035222  00000+0 -10919-2 0  9992
2 69130  97.2844   3.5750 0001315  96.6107 183.9653 15.33499146  5492
STARLINK-37530          
1 69131U 26110H   26167.16668980 -.00035244  00000+0 -10937-2 0  9997
2 69131  97.2837   3.5828 0002020  91.1054 204.4442 15.33463871  5497
STARLINK-37660          
1 69132U 26110J   26167.16668980 -.01037242  00000+0 -28159-1 0  9993
2 69132  97.2842   3.5629 0001662  84.8042 169.9616 15.40543692  5496
STARLINK-37633          
1 69133U 26110K   26167.16668980 -.02465176  00000+0 -64522-1 0  9990
2 69133  97.2847   3.5871 0002226 104.3828 190.6031 15.42355863  5493
